{
    "links": {
        "self": "http://www.neowsapp.com/rest/v1/neo/3831727?api_key=iIulBulltgU6a56xZRHN4H3l9WmuAYTsLGpBGhQ2"
    },
    "id": "3831727",
    "neo_reference_id": "3831727",
    "name": "(2018 TT4)",
    "designation": "2018 TT4",
    "nasa_jpl_url": "http://ssd.jpl.nasa.gov/sbdb.cgi?sstr=3831727",
    "absolute_magnitude_h": 24.8,
    "estimated_diameter": {
        "kilometers": {
            "estimated_diameter_min": 0.0291443905,
            "estimated_diameter_max": 0.0651688382
        },
        "meters": {
            "estimated_diameter_min": 29.1443904535,
            "estimated_diameter_max": 65.1688382168
        },
        "miles": {
            "estimated_diameter_min": 0.018109479,
            "estimated_diameter_max": 0.0404940262
        },
        "feet": {
            "estimated_diameter_min": 95.6180819754,
            "estimated_diameter_max": 213.8085311752
        }
    },
    "is_potentially_hazardous_asteroid": false,
    "close_approach_data": [
        {
            "close_approach_date": "2011-04-26",
            "close_approach_date_full": "2011-Apr-26 02:46",
            "epoch_date_close_approach": 1303785960000,
            "relative_velocity": {
                "kilometers_per_second": "13.7023179348",
                "kilometers_per_hour": "49328.3445653797",
                "miles_per_hour": "30650.7149884161"
            },
            "miss_distance": {
                "astronomical": "0.2001930591",
                "lunar": "77.8750999899",
                "kilometers": "29948455.230144117",
                "miles": "18609107.1642461346"
            },
            "orbiting_body": "Earth"
        },
        {
            "close_approach_date": "2018-03-31",
            "close_approach_date_full": "2018-Mar-31 22:46",
            "epoch_date_close_approach": 1522536360000,
            "relative_velocity": {
                "kilometers_per_second": "12.0071116998",
                "kilometers_per_hour": "43225.6021193297",
                "miles_per_hour": "26858.7081613135"
            },
            "miss_distance": {
                "astronomical": "0.4871727772",
                "lunar": "189.5102103308",
                "kilometers": "72880009.791104564",
                "miles": "45285538.1658844232"
            },
            "orbiting_body": "Earth"
        },
        {
            "close_approach_date": "2018-10-07",
            "close_approach_date_full": "2018-Oct-07 16:53",
            "epoch_date_close_approach": 1538931180000,
            "relative_velocity": {
                "kilometers_per_second": "14.5587076639",
                "kilometers_per_hour": "52411.3475899396",
                "miles_per_hour": "32566.3731733155"
            },
            "miss_distance": {
                "astronomical": "0.013455247",
                "lunar": "5.234091083",
                "kilometers": "2012876.29152389",
                "miles": "1250743.329814082"
            },
            "orbiting_body": "Earth"
        },
        {
            "close_approach_date": "2021-04-18",
            "close_approach_date_full": "2021-Apr-18 22:37",
            "epoch_date_close_approach": 1618785420000,
            "relative_velocity": {
                "kilometers_per_second": "22.3342924194",
                "kilometers_per_hour": "80403.4527096978",
                "miles_per_hour": "49959.5787128675"
            },
            "miss_distance": {
                "astronomical": "0.4323508446",
                "lunar": "168.1844785494",
                "kilometers": "64678765.444861002",
                "miles": "40189521.2345737476"
            },
            "orbiting_body": "Earth"
        }
    ],
    "orbital_data": {
        "orbit_id": "4",
        "orbit_determination_date": "2018-10-19 07:04:37",
        "first_observation_date": "2018-10-10",
        "last_observation_date": "2018-10-19",
        "data_arc_in_days": 9,
        "observations_used": 26,
        "orbit_uncertainty": "8",
        "minimum_orbit_intersection": ".00907822",
        "jupiter_tisserand_invariant": "4.985",
        "epoch_osculation": "2458404.5",
        "eccentricity": ".3171785878996124",
        "semi_major_axis": "1.264781060577077",
        "inclination": "21.42616562307381",
        "ascending_node_longitude": "194.4113399510958",
        "orbital_period": "519.5429516135412",
        "perihelion_distance": ".8636195897810656",
        "perihelion_argument": "113.3081722968307",
        "aphelion_distance": "1.665942531373088",
        "perihelion_time": "2458347.218351809825",
        "mean_anomaly": "39.69141200822622",
        "mean_motion": ".6929167239820122",
        "equinox": "J2000",
        "orbit_class": {
            "orbit_class_type": "APO",
            "orbit_class_description": "Near-Earth asteroid orbits which cross the Earth’s orbit similar to that of 1862 Apollo",
            "orbit_class_range": "a (semi-major axis) > 1.0 AU; q (perihelion) < 1.017 AU"
        }
    },
    "is_sentry_object": false
}